[
    {
        "Altitude(m)": 566303.069722279,
        "Argument of Periapsis(deg)": -0.022603160782972403,
        "Eccentricity": 0.0,
        "Inclination(deg)": 97.0,
        "Latitude(deg)": 23.05248428269122,
        "Longitude(deg)": 44.6763620374997,
        "Mean Anomaly(deg)": 23.238343269187613,
        "RAAN(deg)": 150.0059470536185,
        "Satellite Name": "Starlink Shell 3 1930",
        "Satellite Number": 1930,
        "Semi-Major Axis(m)": 6938478.169268562,
        "Time(s)": 570
    },
    {
        "Altitude(m)": 566372.1766956663,
        "Argument of Periapsis(deg)": -0.02299970746337543,
        "Eccentricity": 0.0,
        "Inclination(deg)": 97.0,
        "Latitude(deg)": 23.675291614419088,
        "Longitude(deg)": 44.54431129677779,
        "Mean Anomaly(deg)": 23.863819466892604,
        "RAAN(deg)": 150.00605138789254,
        "Satellite Name": "Starlink Shell 3 1930",
        "Satellite Number": 1930,
        "Semi-Major Axis(m)": 6938478.169268562,
        "Time(s)": 580
    },
    {
        "Altitude(m)": 566444.5339159115,
        "Argument of Periapsis(deg)": -0.023396254143778456,
        "Eccentricity": 0.0,
        "Inclination(deg)": 97.0,
        "Latitude(deg)": 24.29799582555495,
        "Longitude(deg)": 44.411402523526135,
        "Mean Anomaly(deg)": 24.489295664597602,
        "RAAN(deg)": 150.00615572216654,
        "Satellite Name": "Starlink Shell 3 1930",
        "Satellite Number": 1930,
        "Semi-Major Axis(m)": 6938478.169268562,
        "Time(s)": 590
    },
    {
        "Altitude(m)": 566520.0797925241,
        "Argument of Periapsis(deg)": -0.023792800824181483,
        "Eccentricity": 0.0,
        "Inclination(deg)": 97.0,
        "Latitude(deg)": 24.920593516820354,
        "Longitude(deg)": 44.2776016741377,
        "Mean Anomaly(deg)": 25.11477186230262,
        "RAAN(deg)": 150.00626005644054,
        "Satellite Name": "Starlink Shell 3 1930",
        "Satellite Number": 1930,
        "Semi-Major Axis(m)": 6938478.169268562,
        "Time(s)": 600
    },
    {
        "Altitude(m)": 566598.7513412979,
        "Argument of Periapsis(deg)": -0.024189347504584503,
        "Eccentricity": 0.0,
        "Inclination(deg)": 97.0,
        "Latitude(deg)": 25.543081252933014,
        "Longitude(deg)": 44.14287362742421,
        "Mean Anomaly(deg)": 25.740248060007616,
        "RAAN(deg)": 150.00636439071457,
        "Satellite Name": "Starlink Shell 3 1930",
        "Satellite Number": 1930,
        "Semi-Major Axis(m)": 6938478.169268562,
        "Time(s)": 610
    },
    {
        "Altitude(m)": 566680.4842188439,
        "Argument of Periapsis(deg)": -0.02458589418498753,
        "Eccentricity": 0.0,
        "Inclination(deg)": 97.0,
        "Latitude(deg)": 26.165455559659296,
        "Longitude(deg)": 44.007182631759335,
        "Mean Anomaly(deg)": 26.36572425771274,
        "RAAN(deg)": 150.00646872498857,
        "Satellite Name": "Starlink Shell 3 1930",
        "Satellite Number": 1930,
        "Semi-Major Axis(m)": 6938478.169268562,
        "Time(s)": 620
    },
    {
        "Altitude(m)": 566765.2127577597,
        "Argument of Periapsis(deg)": -0.024982440865390556,
        "Eccentricity": 0.0,
        "Inclination(deg)": 97.0,
        "Latitude(deg)": 26.787712920651085,
        "Longitude(deg)": 43.87049106812366,
        "Mean Anomaly(deg)": 26.991200455417836,
        "RAAN(deg)": 150.0065730592626,
        "Satellite Name": "Starlink Shell 3 1930",
        "Satellite Number": 1930,
        "Semi-Major Axis(m)": 6938478.169268562,
        "Time(s)": 630
    },
    {
        "Altitude(m)": 566852.8700024027,
        "Argument of Periapsis(deg)": -0.025378987545793576,
        "Eccentricity": 0.0,
        "Inclination(deg)": 97.0,
        "Latitude(deg)": 27.409849774060127,
        "Longitude(deg)": 43.73276073126011,
        "Mean Anomaly(deg)": 27.61667665312283,
        "RAAN(deg)": 150.0066773935366,
        "Satellite Name": "Starlink Shell 3 1930",
        "Satellite Number": 1930,
        "Semi-Major Axis(m)": 6938478.169268562,
        "Time(s)": 640
    },
    {
        "Altitude(m)": 566943.3877452782,
        "Argument of Periapsis(deg)": -0.025775534226196602,
        "Eccentricity": 0.0,
        "Inclination(deg)": 97.0,
        "Latitude(deg)": 28.031862508906865,
        "Longitude(deg)": 43.593951585790855,
        "Mean Anomaly(deg)": 28.24215285082788,
        "RAAN(deg)": 150.00678172781056,
        "Satellite Name": "Starlink Shell 3 1930",
        "Satellite Number": 1930,
        "Semi-Major Axis(m)": 6938478.169268562,
        "Time(s)": 650
    },
    {
        "Altitude(m)": 567036.6965639498,
        "Argument of Periapsis(deg)": -0.026172080906599626,
        "Eccentricity": 0.0,
        "Inclination(deg)": 97.0,
        "Latitude(deg)": 28.653747461193166,
        "Longitude(deg)": 43.454022199470906,
        "Mean Anomaly(deg)": 28.867629048532873,
        "RAAN(deg)": 150.0068860620846,
        "Satellite Name": "Starlink Shell 3 1930",
        "Satellite Number": 1930,
        "Semi-Major Axis(m)": 6938478.169268562,
        "Time(s)": 660
    },
    {
        "Altitude(m)": 567132.7258585654,
        "Argument of Periapsis(deg)": -0.026568627587002652,
        "Eccentricity": 0.0,
        "Inclination(deg)": 97.0,
        "Latitude(deg)": 29.27550090974002,
        "Longitude(deg)": 43.31293017233239,
        "Mean Anomaly(deg)": 29.493105246237995,
        "RAAN(deg)": 150.00699039635862,
        "Satellite Name": "Starlink Shell 3 1930",
        "Satellite Number": 1930,
        "Semi-Major Axis(m)": 6938478.169268562,
        "Time(s)": 670
    },
    {
        "Altitude(m)": 567231.4038898542,
        "Argument of Periapsis(deg)": -0.02696517426740568,
        "Eccentricity": 0.0,
        "Inclination(deg)": 97.0,
        "Latitude(deg)": 29.897119071728007,
        "Longitude(deg)": 43.170631048551215,
        "Mean Anomaly(deg)": 30.11858144394299,
        "RAAN(deg)": 150.00709473063262,
        "Satellite Name": "Starlink Shell 3 1930",
        "Satellite Number": 1930,
        "Semi-Major Axis(m)": 6938478.169268562,
        "Time(s)": 680
    },
    {
        "Altitude(m)": 567332.6578176575,
        "Argument of Periapsis(deg)": -0.0273617209478087,
        "Eccentricity": 0.0,
        "Inclination(deg)": 97.0,
        "Latitude(deg)": 30.518598097926294,
        "Longitude(deg)": 43.027078736464944,
        "Mean Anomaly(deg)": 30.744057641648087,
        "RAAN(deg)": 150.00719906490664,
        "Satellite Name": "Starlink Shell 3 1930",
        "Satellite Number": 1930,
        "Semi-Major Axis(m)": 6938478.169268562,
        "Time(s)": 690
    },
    {
        "Altitude(m)": 567436.4137399504,
        "Argument of Periapsis(deg)": -0.027758267628211725,
        "Eccentricity": 0.0,
        "Inclination(deg)": 97.0,
        "Latitude(deg)": 31.13993406758323,
        "Longitude(deg)": 42.8822259235234,
        "Mean Anomaly(deg)": 31.369533839353107,
        "RAAN(deg)": 150.00730339918064,
        "Satellite Name": "Starlink Shell 3 1930",
        "Satellite Number": 1930,
        "Semi-Major Axis(m)": 6938478.169268562,
        "Time(s)": 700
    },
    {
        "Altitude(m)": 567542.5967323208,
        "Argument of Periapsis(deg)": -0.028154814308614752,
        "Eccentricity": 0.0,
        "Inclination(deg)": 97.0,
        "Latitude(deg)": 31.761122982955833,
        "Longitude(deg)": 42.73602297292442,
        "Mean Anomaly(deg)": 31.995010037058105,
        "RAAN(deg)": 150.00740773345464,
        "Satellite Name": "Starlink Shell 3 1930",
        "Satellite Number": 1930,
        "Semi-Major Axis(m)": 6938478.169268562,
        "Time(s)": 710
    },
    {
        "Altitude(m)": 567651.130887889,
        "Argument of Periapsis(deg)": -0.02855136098901778,
        "Eccentricity": 0.0,
        "Inclination(deg)": 97.0,
        "Latitude(deg)": 32.38216076345409,
        "Longitude(deg)": 42.588418327280166,
        "Mean Anomaly(deg)": 32.6204862347632,
        "RAAN(deg)": 150.00751206772864,
        "Satellite Name": "Starlink Shell 3 1930",
        "Satellite Number": 1930,
        "Semi-Major Axis(m)": 6938478.169268562,
        "Time(s)": 720
    },
    {
        "Altitude(m)": 567761.939357654,
        "Argument of Periapsis(deg)": -0.028947907669420805,
        "Eccentricity": 0.0,
        "Inclination(deg)": 97.0,
        "Latitude(deg)": 33.00304323937082,
        "Longitude(deg)": 42.439358906001715,
        "Mean Anomaly(deg)": 33.24596243246822,
        "RAAN(deg)": 150.00761640200267,
        "Satellite Name": "Starlink Shell 3 1930",
        "Satellite Number": 1930,
        "Semi-Major Axis(m)": 6938478.169268562,
        "Time(s)": 730
    },
    {
        "Altitude(m)": 567874.9443912428,
        "Argument of Periapsis(deg)": -0.029344454349823825,
        "Eccentricity": 0.0,
        "Inclination(deg)": 97.0,
        "Latitude(deg)": 33.62376614516604,
        "Longitude(deg)": 42.28878898305293,
        "Mean Anomaly(deg)": 33.871438630173316,
        "RAAN(deg)": 150.00772073627667,
        "Satellite Name": "Starlink Shell 3 1930",
        "Satellite Number": 1930,
        "Semi-Major Axis(m)": 6938478.169268562,
        "Time(s)": 740
    },
    {
        "Altitude(m)": 567990.0673780256,
        "Argument of Periapsis(deg)": -0.029741001030226845,
        "Eccentricity": 0.0,
        "Inclination(deg)": 97.0,
        "Latitude(deg)": 34.244325112274325,
        "Longitude(deg)": 42.13665057030784,
        "Mean Anomaly(deg)": 34.496914827878335,
        "RAAN(deg)": 150.0078250705507,
        "Satellite Name": "Starlink Shell 3 1930",
        "Satellite Number": 1930,
        "Semi-Major Axis(m)": 6938478.169268562,
        "Time(s)": 750
    }
]